ONEWEB-0144             
1 47290U 20100AJ  25177.41540759 -.00000082  00000+0 -26197-3 0  9991
2 47290  87.8875  61.3972 0002049  73.8942 286.2412 13.12443674217902
ONEWEB-0145             
1 47291U 20100AK  25176.39511994 -.00000359  00000+0 -10337-2 0  9992
2 47291  87.8879  61.6276 0001955  79.2834 280.8515 13.12441330217969
ONEWEB-0146             
1 47292U 20100AL  25177.07801568 -.00000135  00000+0 -40952-3 0  9997
2 47292  87.8876  61.4776 0001606  88.4269 271.7043 13.12441565217962
ONEWEB-0147             
1 47293U 20100AM  25176.73900883  .00000470  00000+0  12722-2 0  9993
2 47293  87.8872  61.5246 0002111  82.3921 277.7447 13.12442944217812
ONEWEB-0115             
1 48042U 21025A   25176.28368939  .00000322  00000+0  84581-3 0  9992
2 48042  87.8955  31.1345 0001761  85.8196 274.3134 13.13469121206745
ONEWEB-0152             
1 48043U 21025B   25176.83046791  .00000053  00000+0  11151-3 0  9997
2 48043  87.8959  31.0388 0001754  88.5261 271.6069 13.13469829206776
ONEWEB-0153             
1 48044U 21025C   25176.35140124  .00000363  00000+0  95839-3 0  9999
2 48044  87.8962  31.1315 0001808  82.7337 277.3998 13.13470134206700
ONEWEB-0154             
1 48045U 21025D   25177.33832679  .00000180  00000+0  45920-3 0  9995
2 48045  87.8957  30.9345 0001849  86.0491 274.0850 13.13470728206809
